*******************************************************************************
JPL/HORIZONS                  42 Isis (A856 KB)            2023-Sep-04 11:04:03
Rec #:      42 (+COV) Soln.date: 2023-Aug-23_16:50:02   # obs: 8301 (1856-2023)
 
IAU76/J2000 helio. ecliptic osc. elements (au, days, deg., period=Julian yrs):
 
  EPOCH=  2457248.5 ! 2015-Aug-14.00 (TDB)         Residual RMS= .32962
   EC= .2219565934124111   QR= 1.901419476675736   TP= 2457812.5223823912
   OM= 84.25115407733666   W=  237.100096734342    IN= 8.51234952750001
   A= 2.443847554746526    MA= 214.4912046206169   ADIST= 2.986275632817316
   PER= 3.82049            N= .25798408            ANGMOM= .026220943
   DAN= 2.64197            DDN= 2.07347            L= 321.0611488
   B= -7.1393423           MOID= .90351099         TP= 2017-Feb-28.0223823912
 
Asteroid physical parameters (km, seconds, rotational period in hours):
   GM= n.a.                RAD= 55.4985            ROTPER= 13.59
   H= 7.71                 G= .150                 B-V= .874
                           ALBEDO= .139            STYP= L

ASTEROID comments: 
1: soln ref.= JPL#123, OCC=0
2: source=ORB
*******************************************************************************


*******************************************************************************
Ephemeris / API_USER Mon Sep  4 11:04:03 2023 Pasadena, USA      / Horizons
*******************************************************************************
Target body name: 42 Isis (A856 KB)               {source: JPL#123}
Center body name: Solar System Barycenter (0)     {source: DE441}
Center-site name: BODY CENTER
*******************************************************************************
Start time      : A.D. 2023-Aug-12 00:00:00.0000 TDB
Stop  time      : A.D. 2023-Aug-13 00:00:00.0000 TDB
Step-size       : 2880 minutes
*******************************************************************************
Center geodetic : 0.0, 0.0, 0.0                   {E-lon(deg),Lat(deg),Alt(km)}
Center cylindric: 0.0, 0.0, 0.0                   {E-lon(deg),Dxy(km),Dz(km)}
Center radii    : (undefined)
Small perturbers: Yes                             {source: SB441-N16}
Output units    : KM-S
Calendar mode   : Mixed Julian/Gregorian
Output type     : GEOMETRIC cartesian states
Output format   : 2 (position and velocity)
Reference frame : Ecliptic of J2000.0
*******************************************************************************
Initial IAU76/J2000 heliocentric ecliptic osculating elements (au, days, deg.):
  EPOCH=  2457248.5 ! 2015-Aug-14.00 (TDB)         Residual RMS= .32962        
   EC= .2219565934124111   QR= 1.901419476675736   TP= 2457812.5223823912      
   OM= 84.25115407733666   W=  237.100096734342    IN= 8.51234952750001        
  Equivalent ICRF heliocentric cartesian coordinates (au, au/d):
   X=-2.779103444593151E+00  Y= 5.569194275281426E-01  Z= 7.054717356981006E-01
  VX=-1.499691479461505E-03 VY=-8.204938848365385E-03 VZ=-3.459354428273826E-03
Asteroid physical parameters (km, seconds, rotational period in hours):        
   GM= n.a.                RAD= 55.4985            ROTPER= 13.59               
   H= 7.71                 G= .150                 B-V= .874                   
                           ALBEDO= .139            STYP= L                     
*******************************************************************************
JDTDB
   X     Y     Z
   VX    VY    VZ
*******************************************************************************
$$SOE
2460168.500000000 = A.D. 2023-Aug-12 00:00:00.0000 TDB 
 X =-4.009641247725590E+08 Y =-6.358034409524628E+07 Z = 5.856904648791461E+07
 VX= 5.640135477021576E+00 VY=-1.592329886058021E+01 VZ=-1.080560147129950E+00
$$EOE
*******************************************************************************
 
TIME

  Barycentric Dynamical Time ("TDB" or T_eph) output was requested. This
continuous coordinate time is equivalent to the relativistic proper time
of a clock at rest in a reference frame co-moving with the solar system
barycenter but outside the system's gravity well. It is the independent
variable in the solar system relativistic equations of motion.

  TDB runs at a uniform rate of one SI second per second and is independent
of irregularities in Earth's rotation.
 
CALENDAR SYSTEM

  Mixed calendar mode was active such that calendar dates after AD 1582-Oct-15
(if any) are in the modern Gregorian system. Dates prior to 1582-Oct-5 (if any)
are in the Julian calendar system, which is automatically extended for dates
prior to its adoption on 45-Jan-1 BC.  The Julian calendar is useful for
matching historical dates. The Gregorian calendar more accurately corresponds
to the Earth's orbital motion and seasons. A "Gregorian-only" calendar mode is
available if such physical events are the primary interest.

REFERENCE FRAME AND COORDINATES

  Ecliptic at the standard reference epoch

    Reference epoch: J2000.0
    X-Y plane: adopted Earth orbital plane at the reference epoch
               Note: IAU76 obliquity of 84381.448 arcseconds wrt ICRF X-Y plane
    X-axis   : ICRF
    Z-axis   : perpendicular to the X-Y plane in the directional (+ or -) sense
               of Earth's north pole at the reference epoch.

  Symbol meaning:

    JDTDB    Julian Day Number, Barycentric Dynamical Time
      X      X-component of position vector (km)
      Y      Y-component of position vector (km)
      Z      Z-component of position vector (km)
      VX     X-component of velocity vector (km/sec)                           
      VY     Y-component of velocity vector (km/sec)                           
      VZ     Z-component of velocity vector (km/sec)                           

ABERRATIONS AND CORRECTIONS

 Geometric state vectors have NO corrections or aberrations applied.

Computations by ...

    Solar System Dynamics Group, Horizons On-Line Ephemeris System
    4800 Oak Grove Drive, Jet Propulsion Laboratory
    Pasadena, CA  91109   USA

    General site: https://ssd.jpl.nasa.gov/
    Mailing list: https://ssd.jpl.nasa.gov/email_list.html
    System news : https://ssd.jpl.nasa.gov/horizons/news.html
    User Guide  : https://ssd.jpl.nasa.gov/horizons/manual.html
    Connect     : browser        https://ssd.jpl.nasa.gov/horizons/app.html#/x
                  API            https://ssd-api.jpl.nasa.gov/doc/horizons.html
                  command-line   telnet ssd.jpl.nasa.gov 6775
                  e-mail/batch   https://ssd.jpl.nasa.gov/ftp/ssd/hrzn_batch.txt
                  scripts        https://ssd.jpl.nasa.gov/ftp/ssd/SCRIPTS
    Author      : Jon.D.Giorgini@jpl.nasa.gov
*******************************************************************************
